[{"OBJECT_NAME":"STARLINK-34053","OBJECT_ID":"2025-093B","EPOCH":"2026-03-09T09:06:16.162272","MEAN_MOTION":15.27575177,"ECCENTRICITY":0.00011592,"INCLINATION":42.9993,"RA_OF_ASC_NODE":79.7427,"ARG_OF_PERICENTER":279.8143,"MEAN_ANOMALY":80.2578,"EPHEMERIS_TYPE":0,"CLASSIFICATION_TYPE":"U","NORAD_CAT_ID":63837,"ELEMENT_SET_NO":999,"REV_AT_EPOCH":4786,"BSTAR":0.00087849569,"MEAN_MOTION_DOT":0.00023987,"MEAN_MOTION_DDOT":0},{"OBJECT_NAME":"CZ-4C DEB","OBJECT_ID":"2007-055C","EPOCH":"2026-03-09T22:46:15.652128","MEAN_MOTION":15.30523578,"ECCENTRICITY":0.00469709,"INCLINATION":97.8668,"RA_OF_ASC_NODE":247.2248,"ARG_OF_PERICENTER":277.363,"MEAN_ANOMALY":82.2273,"EPHEMERIS_TYPE":0,"CLASSIFICATION_TYPE":"U","NORAD_CAT_ID":35248,"ELEMENT_SET_NO":999,"REV_AT_EPOCH":97353,"BSTAR":0.0018809895,"MEAN_MOTION_DOT":0.000577,"MEAN_MOTION_DDOT":0}]
